#dP2018  2  5  0  0  0.00000000      96 __u+U IGS08 FIT  IAC
## 1987  86400.00000000   900.00000000 58154 0.0000000000000
+   87   C01C02C03C04C05C06C07C08C09C10C11C12C13C14E01E02E03
+        E04E05E07E08E09E11E12E14E18E19E24E26E30G01G02G03G05
+        G06G07G08G09G10G11G12G13G14G15G16G17G19G20G21G22G23
+        G24G25G26G27G28G29G30G31G32J01J02J03R01R02R03R04R05
+        R06R07R08R09R10R11R13R14R15R16R17R18R19R20R21R22R23
+        R24R26  0  0  0  0  0  0  0  0  0  0  0  0  0  0  0
++        12 12 12 12 12  8  8  8  8  8  8  8  8  7  7  7  7
++         7  7  7  7  7  7  7  7  7  7  7  7  7  3  3  3  3
++         3  3  3  3  3  3  3  3  3  3  3  3  3  3  3  3  3
++         3  3  5  3  3  3  3  3  3  8 11 11  5  5  5  5  5
++         5  5  5  5  5  5  5  5  5  5  5  5  5  5  5  5  5
++         6  8  0  0  0  0  0  0  0  0  0  0  0  0  0  0  0
%c M  cc GPS ccc cccc cccc cccc cccc ccccc ccccc ccccc ccccc
%c cc cc ccc ccc cccc cccc cccc cccc ccccc ccccc ccccc ccccc
%f  1.2500000  1.025000000  0.00000000000  0.000000000000000
%f  0.0000000  0.000000000  0.00000000000  0.000000000000000
%i    0    0    0    0      0      0      0      0         0
%i    0    0    0    0      0      0      0      0         0
/* INFORMATION & ANALYSIS CENTER (IAC)            FINAL DATA
/* S/V CLOCKS ARE ALIGNED TO GPS & GLONASS TIME RESPECTIVELY
/* USING THE BROADCAST EPHEMERIS                            
/* PCV:IGS14_1984 OL/AL:FES2004  NONE     YN ORB:CoN CLK:CoN
*  2018 02 05 18 30  0.00000000
PC01 -32289.139551  27101.720385     52.778259    330.008939
PC02   4425.581374  41933.522190    976.684606   -205.445318
PC03 -14784.183728  39509.395199    914.061830   -147.712164
PC04 -39609.899014  14434.040261     68.454565   -356.828730
PC05  21944.742484  36011.357588   1191.457808   -142.099543
PC06 -23921.535339  32871.725471 -11568.868436   -679.636445
PC07  -9446.406555  33553.036689 -23315.778090   -300.756712
PC08 -13109.615153  18979.461038  35362.240531    157.968481
PC09 -12400.957936  32497.454884 -23907.585468   -432.247167
PC10   1539.953655  40170.271820 -12012.442096      4.798221
PC11 -26726.546962   6395.122771   4673.758460   -380.246953
PC12 -23466.812846  -6090.516058 -13674.010841    377.830088
PC13   2234.220724  24803.255683  34083.274405   -188.074785
PC14 -18232.934574  10817.736417  18225.647231    188.824008
PE01 -15330.221970   4999.878854 -24822.257931   -269.852686
PE02  15328.109746  -5006.124640  24822.547471      3.832515
PE03  23638.258261 -13467.448698 -11677.750542      4.239298
PE04 -15779.914040  24155.047946  -6623.141070     29.867338
PE05  17663.811393   5149.759485 -23189.887591    327.708055
PE07  -1368.355316 -20710.911026  21107.896945     89.384226
PE08  15590.226621 -24281.615826   6616.500458   6647.506584
PE09   1430.841425  20637.402578 -21165.366965   6883.242314
PE11  12065.316996  17021.297185  20995.418723   1850.512862
PE12 -10409.454007  14215.856245  23799.451044   3441.700080
PE14  19387.017653   4761.025069  12896.867855   6635.923430
PE18 -22263.139066 -10985.867395 -20740.617684   6449.823616
PE19 -23558.793150  12009.580515  13307.417227     19.109830
PE24   9096.310334  28179.389905    297.567977   6878.141012
PE26 -27162.314365 -10069.514042  -6059.469600   6303.903201
PE30   4419.530699 -23580.342513  17321.260696   6101.115555
PG01 -22549.934597 -13361.605165   5024.333974    -27.229358
PG02   9189.438255  20008.089902  15599.090535    208.500639
PG03 -13464.835277  -9276.329118  20920.109539      3.437641
PG05   3300.863428  24823.593893  -8632.946264    -15.074334
PG06  -3153.872078  15851.243373  21105.028311    414.746116
PG07 -20145.694266   -693.126864 -17314.496656    241.110071
PG08 -14982.298642  -8702.749383 -20112.589714    -90.145678
PG09 -25142.664991   7726.906130   3689.583942    498.870915
PG10  10946.021785 -21217.341880 -11447.417113    156.108326
PG11 -24377.320017  -9652.061725  -4319.155799   -735.689937
PG12  11336.487088  12262.983570  20530.142449    351.837895
PG13   5801.385297  14031.579839 -21910.717618    -95.553023
PG14  10318.952464 -16620.505863  18167.152531    -93.514599
PG15  16792.194734   7792.315151 -19380.974966   -357.142146
PG16   -965.799363 -24606.113560  -9510.666604     32.817817
PG17 -18350.054555  15049.683348  12174.080359   -125.510313
PG19 -12691.284474  15739.661035  17051.329976   -459.049539
PG20  14520.587121  10355.946010 -19841.009939    500.154691
PG21  18676.103969  -2721.651284 -17904.496871   -433.775574
PG22 -11858.912751 -16351.738115  17478.704086   -281.487497
PG23 -22639.581290  -1773.736783  14376.233441   -219.012644
PG24  22343.022146  14538.157320   1674.626271    -45.694397
PG25  15084.990892  -2656.341694  21504.364996   -533.985979
PG26   4417.760648 -26059.183516   1765.571923   -261.203593
PG27  -1526.024360 -15246.973136 -21726.106026    365.965657
PG28 -13151.310699  18451.928145 -13260.008093    686.159444
PG29  25261.075201  -3297.804545   7475.173873    500.754888
PG30 -14441.076312   7542.443871 -20994.920051    106.234362
PG31   2831.955221 -16320.230227  20711.875271    143.747488
PG32  17570.982143 -16149.685535  11603.775614   -532.768878
PJ01 -29081.148540  26850.082017  19580.557637   -119.688483
PJ02 -20048.364459  19577.180815 -27219.152818     -0.067405
PJ03 -28915.743032  30296.775630   9978.344990     -0.097444
PR01    -68.188029  17172.497032 -18858.659487     21.661223
PR02  12503.044072     68.028974 -22193.821915    293.760067
PR03  16616.401913 -15646.391856 -11316.533311    123.324857
PR04  10694.123189 -22211.042989   6536.997840    248.781348
PR05  -1168.170471 -16076.088164  19760.588065   -242.716824
PR06 -13096.788459    935.745818  21859.191912    126.479685
PR07 -16648.239370  15908.291497  11038.950263    -29.335658
PR08 -11138.616803  22186.195442  -5820.829232    -27.037329
PR09 -14971.773167 -12691.205140 -16315.724265     47.618481
PR10  -9442.568568   4903.884035 -23203.532843     17.569403
PR11   1375.390136  19877.151583 -15892.128579    -21.132851
PR13  14973.449881  11804.021247  16926.284955     -7.202178
PR14   9763.402648  -4813.472175  23079.123541     24.449738
PR15    772.710186 -17548.678497  18454.454901     -6.069633
PR16 -11617.886379 -22637.394677    205.294465     84.913944
PR17  22838.177193  -3620.328841 -10789.629673    106.814847
PR18   8829.948325  -9529.985324 -21917.984167    183.746028
PR19 -10262.497343 -10328.875539 -20936.978904    -43.699973
PR20 -24159.094579  -4937.845421  -6617.482970   -326.097204
PR21 -22669.300250   3744.838511  11063.233353     21.804148
PR22  -7093.095543   9814.614383  22480.821649    -16.334778
PR23  13743.414084   9616.916163  19215.097558    134.498383
PR24  24421.632556   4238.302686   5972.808197   -162.065750
PR26 -24151.455096  -4552.403952  -6772.686760     -2.256723
EOF
